{"type": "FeatureCollection", "features": [ {"type": "Feature", "properties": {"norad_id": 32384, "name": "GPS BIIRM-5 (PRN 29)", "group": "gps-ops", "lat": 34.299497445443066, "lon": -49.61054620622104, "alt_km": 20218.868711071325, "timestamp": "2025-12-01T03:58:49.191173+00:00", "meta": {"OBJECT_NAME": "GPS BIIRM-5 (PRN 29)", "OBJECT_ID": "2007-062A", "EPOCH": "2025-11-30T01:46:38.777952", "MEAN_MOTION": 2.0057652, "ECCENTRICITY": 0.00321996, "INCLINATION": 55.1935, "RA_OF_ASC_NODE": 282.1541, "ARG_OF_PERICENTER": 162.9568, "MEAN_ANOMALY": 172.309, "EPHEMERIS_TYPE": 0, "CLASSIFICATION_TYPE": "U", "NORAD_CAT_ID": 32384, "ELEMENT_SET_NO": 999, "REV_AT_EPOCH": 13151, "BSTAR": 0, "MEAN_MOTION_DOT": -3.9e-07, "MEAN_MOTION_DDOT": 0, "GROUP": "gps-ops"}, "tle": {"line1": "1 32384U 07062A   25334.07405993 -.00000039  00000+0  00000+0 0  9990", "line2": "2 32384  55.1935 282.1541 0032199 162.9568 172.3090  2.00576520131514"}}, "geometry": {"type": "Point", "coordinates": [-49.61054620622104, 34.299497445443066]}}, {"type": "Feature", "properties": {"norad_id": 32711, "name": "GPS BIIRM-6 (PRN 07)", "group": "gps-ops", "lat": -23.453261012581347, "lon": 139.76917943030153, "alt_km": 20135.746903928182, "timestamp": "2025-12-01T03:58:49.191198+00:00", "meta": {"OBJECT_NAME": "GPS BIIRM-6 (PRN 07)", "OBJECT_ID": "2008-012A", "EPOCH": "2025-11-30T16:59:40.998624", "MEAN_MOTION": 2.00564962, "ECCENTRICITY": 0.0201976, "INCLINATION": 54.4753, "RA_OF_ASC_NODE": 157.8533, "ARG_OF_PERICENTER": 244.8175, "MEAN_ANOMALY": 113.1226, "EPHEMERIS_TYPE": 0, "CLASSIFICATION_TYPE": "U", "NORAD_CAT_ID": 32711, "ELEMENT_SET_NO": 999, "REV_AT_EPOCH": 12977, "BSTAR": 0, "MEAN_MOTION_DOT": 1.28e-06, "MEAN_MOTION_DDOT": 0, "GROUP": "gps-ops"}, "tle": {"line1": "1 32711U 08012A   25334.70811341  .00000128  00000+0  00000+0 0  9996", "line2": "2 32711  54.4753 157.8533 0201976 244.8175 113.1226  2.00564962129778"}}, "geometry": {"type": "Point", "coordinates": [139.76917943030153, -23.453261012581347]}}, {"type": "Feature", "properties": {"norad_id": 35752, "name": "GPS BIIRM-8 (PRN 05)", "group": "gps-ops", "lat": -10.055691771974068, "lon": 28.408532758505782, "alt_km": 20192.847768877444, "timestamp": "2025-12-01T03:58:49.191236+00:00", "meta": {"OBJECT_NAME": "GPS BIIRM-8 (PRN 05)", "OBJECT_ID": "2009-043A", "EPOCH": "2025-11-30T04:48:34.511616", "MEAN_MOTION": 2.00566338, "ECCENTRICITY": 0.00521622, "INCLINATION": 56.0822, "RA_OF_ASC_NODE": 35.2779, "ARG_OF_PERICENTER": 82.1106, "MEAN_ANOMALY": 289.2836, "EPHEMERIS_TYPE": 0, "CLASSIFICATION_TYPE": "U", "NORAD_CAT_ID": 35752, "ELEMENT_SET_NO": 999, "REV_AT_EPOCH": 11937, "BSTAR": 0, "MEAN_MOTION_DOT": -6.5e-07, "MEAN_MOTION_DDOT": 0, "GROUP": "gps-ops"}, "tle": {"line1": "1 35752U 09043A   25334.20039944 -.00000065  00000+0  00000+0 0  9996", "line2": "2 35752  56.0822  35.2779 0052162  82.1106 289.2836  2.00566338119376"}}, "geometry": {"type": "Point", "coordinates": [28.408532758505782, -10.055691771974068]}}, {"type": "Feature", "properties": {"norad_id": 36585, "name": "GPS BIIF-1  (PRN 25)", "group": "gps-ops", "lat": 50.46794246477578, "lon": -23.940799431367438, "alt_km": 19932.646593116482, "timestamp": "2025-12-01T03:58:49.191257+00:00", "meta": {"OBJECT_NAME": "GPS BIIF-1  (PRN 25)", "OBJECT_ID": "2010-022A", "EPOCH": "2025-11-30T06:31:30.992736", "MEAN_MOTION": 2.00552472, "ECCENTRICITY": 0.01255737, "INCLINATION": 54.3027, "RA_OF_ASC_NODE": 216.5768, "ARG_OF_PERICENTER": 64.9352, "MEAN_ANOMALY": 116.9551, "EPHEMERIS_TYPE": 0, "CLASSIFICATION_TYPE": "U", "NORAD_CAT_ID": 36585, "ELEMENT_SET_NO": 999, "REV_AT_EPOCH": 11360, "BSTAR": 0, "MEAN_MOTION_DOT": 5.1e-07, "MEAN_MOTION_DDOT": 0, "GROUP": "gps-ops"}, "tle": {"line1": "1 36585U 10022A   25334.27188649  .00000051  00000+0  00000+0 0  9998", "line2": "2 36585  54.3027 216.5768 0125573  64.9352 116.9551  2.00552472113603"}}, "geometry": {"type": "Point", "coordinates": [-23.940799431367438, 50.46794246477578]}}, {"type": "Feature", "properties": {"norad_id": 38833, "name": "GPS BIIF-3  (PRN 24)", "group": "gps-ops", "lat": -20.293374375282518, "lon": -12.42917888579448, "alt_km": 20547.1599017381, "timestamp": "2025-12-01T03:58:49.191290+00:00", "meta": {"OBJECT_NAME": "GPS BIIF-3  (PRN 24)", "OBJECT_ID": "2012-053A", "EPOCH": "2025-11-29T21:19:11.965152", "MEAN_MOTION": 2.00564833, "ECCENTRICITY": 0.01754158, "INCLINATION": 53.5554, "RA_OF_ASC_NODE": 151.7651, "ARG_OF_PERICENTER": 63.8108, "MEAN_ANOMALY": 298.023, "EPHEMERIS_TYPE": 0, "CLASSIFICATION_TYPE": "U", "NORAD_CAT_ID": 38833, "ELEMENT_SET_NO": 999, "REV_AT_EPOCH": 9544, "BSTAR": 0, "MEAN_MOTION_DOT": 1.24e-06, "MEAN_MOTION_DDOT": 0, "GROUP": "gps-ops"}, "tle": {"line1": "1 38833U 12053A   25333.88833293  .00000124  00000+0  00000+0 0  9991", "line2": "2 38833  53.5554 151.7651 0175415  63.8108 298.0230  2.00564833 95446"}}, "geometry": {"type": "Point", "coordinates": [-12.42917888579448, -20.293374375282518]}}, {"type": "Feature", "properties": {"norad_id": 39166, "name": "GPS BIIF-4  (PRN 27)", "group": "gps-ops", "lat": -44.70709562486469, "lon": -127.52878311682224, "alt_km": 20295.508367141327, "timestamp": "2025-12-01T03:58:49.191309+00:00", "meta": {"OBJECT_NAME": "GPS BIIF-4  (PRN 27)", "OBJECT_ID": "2013-023A", "EPOCH": "2025-11-30T06:01:05.707200", "MEAN_MOTION": 2.00565085, "ECCENTRICITY": 0.01371244, "INCLINATION": 54.663, "RA_OF_ASC_NODE": 277.0761, "ARG_OF_PERICENTER": 48.4776, "MEAN_ANOMALY": 312.6901, "EPHEMERIS_TYPE": 0, "CLASSIFICATION_TYPE": "U", "NORAD_CAT_ID": 39166, "ELEMENT_SET_NO": 999, "REV_AT_EPOCH": 9189, "BSTAR": 0, "MEAN_MOTION_DOT": -3.8e-07, "MEAN_MOTION_DDOT": 0, "GROUP": "gps-ops"}, "tle": {"line1": "1 39166U 13023A   25334.25076050 -.00000038  00000+0  00000+0 0  9996", "line2": "2 39166  54.6630 277.0761 0137124  48.4776 312.6901  2.00565085 91895"}}, "geometry": {"type": "Point", "coordinates": [-127.52878311682224, -44.70709562486469]}}, {"type": "Feature", "properties": {"norad_id": 39533, "name": "GPS BIIF-5  (PRN 30)", "group": "gps-ops", "lat": -41.350270064792596, "lon": 116.94116385891103, "alt_km": 20142.534724877612, "timestamp": "2025-12-01T03:58:49.191330+00:00", "meta": {"OBJECT_NAME": "GPS BIIF-5  (PRN 30)", "OBJECT_ID": "2014-008A", "EPOCH": "2025-11-29T05:57:39.103200", "MEAN_MOTION": 2.00573621, "ECCENTRICITY": 0.00788834, "INCLINATION": 53.629, "RA_OF_ASC_NODE": 157.4751, "ARG_OF_PERICENTER": 226.3092, "MEAN_ANOMALY": 133.082, "EPHEMERIS_TYPE": 0, "CLASSIFICATION_TYPE": "U", "NORAD_CAT_ID": 39533, "ELEMENT_SET_NO": 999, "REV_AT_EPOCH": 8567, "BSTAR": 0, "MEAN_MOTION_DOT": 1.23e-06, "MEAN_MOTION_DDOT": 0, "GROUP": "gps-ops"}, "tle": {"line1": "1 39533U 14008A   25333.24836925  .00000123  00000+0  00000+0 0  9995", "line2": "2 39533  53.6290 157.4751 0078883 226.3092 133.0820  2.00573621 85677"}}, "geometry": {"type": "Point", "coordinates": [116.94116385891103, -41.350270064792596]}}, {"type": "Feature", "properties": {"norad_id": 39741, "name": "GPS BIIF-6  (PRN 06)", "group": "gps-ops", "lat": 55.08297989505352, "lon": 88.20274296049031, "alt_km": 20257.897778767394, "timestamp": "2025-12-01T03:58:49.191344+00:00", "meta": {"OBJECT_NAME": "GPS BIIF-6  (PRN 06)", "OBJECT_ID": "2014-026A", "EPOCH": "2025-11-30T12:39:58.959072", "MEAN_MOTION": 2.00562075, "ECCENTRICITY": 0.0038837, "INCLINATION": 56.5882, "RA_OF_ASC_NODE": 339.2517, "ARG_OF_PERICENTER": 318.0342, "MEAN_ANOMALY": 41.7022, "EPHEMERIS_TYPE": 0, "CLASSIFICATION_TYPE": "U", "NORAD_CAT_ID": 39741, "ELEMENT_SET_NO": 999, "REV_AT_EPOCH": 8455, "BSTAR": 0, "MEAN_MOTION_DOT": -5e-07, "MEAN_MOTION_DDOT": 0, "GROUP": "gps-ops"}, "tle": {"line1": "1 39741U 14026A   25334.52776573 -.00000050  00000+0  00000+0 0  9990", "line2": "2 39741  56.5882 339.2517 0038837 318.0342  41.7022  2.00562075 84555"}}, "geometry": {"type": "Point", "coordinates": [88.20274296049031, 55.08297989505352]}}, {"type": "Feature", "properties": {"norad_id": 40105, "name": "GPS BIIF-7  (PRN 09)", "group": "gps-ops", "lat": 29.613148383812153, "lon": 119.59239311694654, "alt_km": 20166.400913412795, "timestamp": "2025-12-01T03:58:49.191362+00:00", "meta": {"OBJECT_NAME": "GPS BIIF-7  (PRN 09)", "OBJECT_ID": "2014-045A", "EPOCH": "2025-11-30T14:47:03.857568", "MEAN_MOTION": 2.00571708, "ECCENTRICITY": 0.0032957, "INCLINATION": 55.2214, "RA_OF_ASC_NODE": 96.3828, "ARG_OF_PERICENTER": 119.5712, "MEAN_ANOMALY": 240.7417, "EPHEMERIS_TYPE": 0, "CLASSIFICATION_TYPE": "U", "NORAD_CAT_ID": 40105, "ELEMENT_SET_NO": 999, "REV_AT_EPOCH": 8209, "BSTAR": 0, "MEAN_MOTION_DOT": 2.4e-07, "MEAN_MOTION_DDOT": 0, "GROUP": "gps-ops"}, "tle": {"line1": "1 40105U 14045A   25334.61601687  .00000024  00000+0  00000+0 0  9990", "line2": "2 40105  55.2214  96.3828 0032957 119.5712 240.7417  2.00571708 82093"}}, "geometry": {"type": "Point", "coordinates": [119.59239311694654, 29.613148383812153]}}, {"type": "Feature", "properties": {"norad_id": 40294, "name": "GPS BIIF-8  (PRN 03)", "group": "gps-ops", "lat": 42.03560483492051, "lon": -177.44766125586912, "alt_km": 20089.63168898874, "timestamp": "2025-12-01T03:58:49.191379+00:00", "meta": {"OBJECT_NAME": "GPS BIIF-8  (PRN 03)", "OBJECT_ID": "2014-068A", "EPOCH": "2025-11-30T11:50:19.709088", "MEAN_MOTION": 2.00564008, "ECCENTRICITY": 0.0060843, "INCLINATION": 56.8481, "RA_OF_ASC_NODE": 38.6199, "ARG_OF_PERICENTER": 69.4521, "MEAN_ANOMALY": 291.2475, "EPHEMERIS_TYPE": 0, "CLASSIFICATION_TYPE": "U", "NORAD_CAT_ID": 40294, "ELEMENT_SET_NO": 999, "REV_AT_EPOCH": 8122, "BSTAR": 0, "MEAN_MOTION_DOT": -6.3e-07, "MEAN_MOTION_DDOT": 0, "GROUP": "gps-ops"}, "tle": {"line1": "1 40294U 14068A   25334.49328367 -.00000063  00000+0  00000+0 0  9995", "line2": "2 40294  56.8481  38.6199 0060843  69.4521 291.2475  2.00564008 81225"}}, "geometry": {"type": "Point", "coordinates": [-177.44766125586912, 42.03560483492051]}}]}